[{"OBJECT_NAME":"FENGYUN 3H","OBJECT_ID":"2025-219A","EPOCH":"2026-03-09T21:29:42.222912","MEAN_MOTION":14.19932737,"ECCENTRICITY":0.00012969,"INCLINATION":98.6685,"RA_OF_ASC_NODE":11.64,"ARG_OF_PERICENTER":61.8301,"MEAN_ANOMALY":298.3007,"EPHEMERIS_TYPE":0,"CLASSIFICATION_TYPE":"U","NORAD_CAT_ID":65815,"ELEMENT_SET_NO":999,"REV_AT_EPOCH":2329,"BSTAR":7.8784575e-5,"MEAN_MOTION_DOT":1.24e-6,"MEAN_MOTION_DDOT":0},{"OBJECT_NAME":"CZ-6A DEB","OBJECT_ID":"2022-151GD","EPOCH":"2026-03-09T22:21:35.636544","MEAN_MOTION":14.12739326,"ECCENTRICITY":0.00819856,"INCLINATION":98.9146,"RA_OF_ASC_NODE":81.0947,"ARG_OF_PERICENTER":224.9849,"MEAN_ANOMALY":134.4662,"EPHEMERIS_TYPE":0,"CLASSIFICATION_TYPE":"U","NORAD_CAT_ID":54453,"ELEMENT_SET_NO":999,"REV_AT_EPOCH":17057,"BSTAR":0.0013379455,"MEAN_MOTION_DOT":2.519e-5,"MEAN_MOTION_DDOT":0}]
